{
  "norad_id": 56787,
  "name": "STARLINK-6326",
  "history": [
    {
      "epoch": "2026-03-28T21:38:12.712992",
      "apogee_km": 573.2649561802336,
      "perigee_km": 570.775409877273,
      "latitude_deg": 1.6842755375140903,
      "longitude_deg": -54.752541120164096,
      "semi_major_axis_km": 6950.157183028753,
      "eccentricity": 0.0001791,
      "inclination_deg": 69.9979,
      "raan_deg": 275.9205,
      "arg_perigee_deg": 275.6869,
      "mean_anomaly_deg": 84.4086,
      "mean_motion_rev_day": 14.98341547
    }
  ]
}